ONEWEB-0319             
1 49105U 21075AG  25194.64995664  .00000001  00000+0 -29986-4 0  9993
2 49105  87.9045  73.2746 0001380  80.9839 279.1448 13.17648373189020
ONEWEB-0323             
1 49106U 21075AH  25194.31896702  .00000138  00000+0  34767-3 0  9993
2 49106  87.8854  58.0282 0000998  81.1809 278.9432 13.12442883190102
ONEWEB-0329             
1 49107U 21075AJ  25194.88620923  .00000078  00000+0  16799-3 0  9994
2 49107  87.9047  73.2323 0001586  77.2881 282.8427 13.17649524190028
ONEWEB-0330             
1 49108U 21075AK  25194.88784998  .00000072  00000+0  15307-3 0  9996
2 49108  87.9046  73.2346 0001736  71.8762 288.2558 13.17645104190067
ONEWEB-0292             
1 49186U 21083A   25194.47996908 -.00000267  00000+0 -76697-3 0  9999
2 49186  87.8958  27.5628 0001645  91.4692 268.6626 13.13470375186467
ONEWEB-0303             
1 49187U 21083B   25194.51544003 -.00000009  00000+0 -56573-4 0  9996
2 49187  87.9126  42.7418 0001609  87.8978 272.2339 13.18687404185344
ONEWEB-0306             
1 49188U 21083C   25194.58141238  .00000014  00000+0  32193-5 0  9994
2 49188  87.9127  42.7141 0002017  83.2826 276.8535 13.18686875185399
ONEWEB-0307             
1 49189U 21083D   25194.47404727 -.00000135  00000+0 -40557-3 0  9995
2 49189  87.8957  27.5683 0002005  79.6416 280.4939 13.13469901186465
